CTC1_L_00463003-17
1 10062U 23826LC  26075.70035880  .00000000  00000+0  00000-0 0  9990
2 10062  50.0000  24.0000 0000000   0.0000 254.6087 14.89338871    17
CTC1_L_00463003-18
1 10063U 22683NW  26075.70035880  .00000000  00000+0  00000-0 0  9991
2 10063  50.0000  24.0000 0000000   0.0000 270.2609 14.89338871    12
CTC1_L_00463003-19
1 10064U 23785YC  26075.70035880  .00000000  00000+0  00000-0 0  9996
2 10064  50.0000  24.0000 0000000   0.0000 285.9130 14.89338871    15
CTC1_L_00463003-20
1 10065U 23024RV  26075.70035880  .00000000  00000+0  00000-0 0  9993
2 10065  50.0000  24.0000 0000000   0.0000 301.5652 14.89338871    10
CTC1_L_00463003-21
1 10066U 26947JV  26075.70035880  .00000000  00000+0  00000-0 0  9991
2 10066  50.0000  24.0000 0000000   0.0000 317.2174 14.89338871    14
CTC1_L_00463003-22
1 10067U 22176JV  26075.70035880  .00000000  00000+0  00000-0 0  9992
2 10067  50.0000  24.0000 0000000   0.0000 332.8696 14.89338871    17
CTC1_L_00463003-23
1 10068U 24719MY  26075.70035880  .00000000  00000+0  00000-0 0  9998
2 10068  50.0000  24.0000 0000000   0.0000 348.5217 14.89338871    11
CTC1_L_00463004-01
1 10069U 24359ZU  26075.70035880  .00000000  00000+0  00000-0 0  9999
2 10069  50.0000  36.0000 0000000   0.0000   6.2609 14.89338871    18
CTC1_L_00463004-02
1 10070U 26179SN  26075.70035880  .00000000  00000+0  00000-0 0  9993
2 10070  50.0000  36.0000 0000000   0.0000  21.9130 14.89338871    13
CTC1_L_00463004-03
1 10071U 26595NX  26075.70035880  .00000000  00000+0  00000-0 0  9996
2 10071  50.0000  36.0000 0000000   0.0000  37.5652 14.89338871    16
CTC1_L_00463004-04
1 10072U 23586HV  26075.70035880  .00000000  00000+0  00000-0 0  9994
2 10072  50.0000  36.0000 0000000   0.0000  53.2174 14.89338871    11
CTC1_L_00463004-05
1 10073U 22434IT  26075.70035880  .00000000  00000+0  00000-0 0  9996
2 10073  50.0000  36.0000 0000000   0.0000  68.8696 14.89338871    13
CTC1_L_00463004-06
1 10074U 24435UG  26075.70035880  .00000000  00000+0  00000-0 0  9990
2 10074  50.0000  36.0000 0000000   0.0000  84.5217 14.89338871    18
CTC1_L_00463004-07
1 10075U 24014CT  26075.70035880  .00000000  00000+0  00000-0 0  9994
2 10075  50.0000  36.0000 0000000   0.0000 100.1739 14.89338871    13
CTC1_L_00463004-08
1 10076U 22303YB  26075.70035880  .00000000  00000+0  00000-0 0  9994
2 10076  50.0000  36.0000 0000000   0.0000 115.8261 14.89338871    17
CTC1_L_00463004-09
1 10077U 23607XA  26075.70035880  .00000000  00000+0  00000-0 0  9993
2 10077  50.0000  36.0000 0000000   0.0000 131.4783 14.89338871    11
CTC1_L_00463004-10
1 10078U 24765UO  26075.70035880  .00000000  00000+0  00000-0 0  9990
2 10078  50.0000  36.0000 0000000   0.0000 147.1304 14.89338871    15
CTC1_L_00463004-11
1 10079U 23041BW  26075.70035880  .00000000  00000+0  00000-0 0  9997
2 10079  50.0000  36.0000 0000000   0.0000 162.7826 14.89338871    18
CTC1_L_00463004-12
1 10080U 25518GI  26075.70035880  .00000000  00000+0  00000-0 0  9990
2 10080  50.0000  36.0000 0000000   0.0000 178.4348 14.89338871    13
CTC1_L_00463004-13
1 10081U 22616AX  26075.70035880  .00000000  00000+0  00000-0 0  9997
2 10081  50.0000  36.0000 0000000   0.0000 194.0870 14.89338871    18
CTC1_L_00463004-14
1 10082U 23648CI  26075.70035880  .00000000  00000+0  00000-0 0  9994
2 10082  50.0000  36.0000 0000000   0.0000 209.7391 14.89338871    11
CTC1_L_00463004-15
1 10083U 25058DD  26075.70035880  .00000000  00000+0  00000-0 0  9992
2 10083  50.0000  36.0000 0000000   0.0000 225.3913 14.89338871    16
CTC1_L_00463004-16
1 10084U 24276XG  26075.70035880  .00000000  00000+0  00000-0 0  9994
2 10084  50.0000  36.0000 0000000   0.0000 241.0435 14.89338871    11
CTC1_L_00463004-17
1 10085U 22949FU  26075.70035880  .00000000  00000+0  00000-0 0  9990
2 10085  50.0000  36.0000 0000000   0.0000 256.6957 14.89338871    13
CTC1_L_00463004-18
1 10086U 26460LU  26075.70035880  .00000000  00000+0  00000-0 0  9993
2 10086  50.0000  36.0000 0000000   0.0000 272.3478 14.89338871    17
CTC1_L_00463004-19
1 10087U 25231EY  26075.70035880  .00000000  00000+0  00000-0 0  9999
2 10087  50.0000  36.0000 0000000   0.0000 288.0000 14.89338871    13
CTC1_L_00463004-20
1 10088U 23525JZ  26075.70035880  .00000000  00000+0  00000-0 0  9994
2 10088  50.0000  36.0000 0000000   0.0000 303.6522 14.89338871    17
CTC1_L_00463004-21
1 10089U 26554GZ  26075.70035880  .00000000  00000+0  00000-0 0  9990
2 10089  50.0000  36.0000 0000000   0.0000 319.3043 14.89338871    10
CTC1_L_00463004-22
1 10090U 25205DU  26075.70035880  .00000000  00000+0  00000-0 0  9994
2 10090  50.0000  36.0000 0000000   0.0000 334.9565 14.89338871    14
CTC1_L_00463004-23
1 10091U 26126TS  26075.70035880  .00000000  00000+0  00000-0 0  9998
2 10091  50.0000  36.0000 0000000   0.0000 350.6087 14.89338871    19
CTC1_L_00463005-01
1 10092U 22797QI  26075.70035880  .00000000  00000+0  00000-0 0  9999
2 10092  50.0000  48.0000 0000000   0.0000   8.3478 14.89338871    14
CTC1_L_00463005-02
1 10093U 25806PZ  26075.70035880  .00000000  00000+0  00000-0 0  9994
2 10093  50.0000  48.0000 0000000   0.0000  24.0000 14.89338871    11
CTC1_L_00463005-03
1 10094U 26115BL  26075.70035880  .00000000  00000+0  00000-0 0  9999
2 10094  50.0000  48.0000 0000000   0.0000  39.6522 14.89338871    13
CTC1_L_00463005-04
1 10095U 25378BE  26075.70035880  .00000000  00000+0  00000-0 0  9990
2 10095  50.0000  48.0000 0000000   0.0000  55.3043 14.89338871    17
CTC1_L_00463005-05
1 10096U 22157EQ  26075.70035880  .00000000  00000+0  00000-0 0  9993
2 10096  50.0000  48.0000 0000000   0.0000  70.9565 14.89338871    10
CTC1_L_00463005-06
1 10097U 25068QF  26075.70035880  .00000000  00000+0  00000-0 0  9998
2 10097  50.0000  48.0000 0000000   0.0000  86.6087 14.89338871    14
CTC1_L_00463005-07
1 10098U 25466IA  26075.70035880  .00000000  00000+0  00000-0 0  9991
2 10098  50.0000  48.0000 0000000   0.0000 102.2609 14.89338871    10
CTC1_L_00463005-08
1 10099U 22249DM  26075.70035880  .00000000  00000+0  00000-0 0  9998
2 10099  50.0000  48.0000 0000000   0.0000 117.9130 14.89338871    13
CTC1_L_00463005-09
1 10100U 25548KE  26075.70035880  .00000000  00000+0  00000-0 0  9996
2 10100  50.0000  48.0000 0000000   0.0000 133.5652 14.89338871    19
CTC1_L_00463005-10
1 10101U 22113PT  26075.70035880  .00000000  00000+0  00000-0 0  9992
2 10101  50.0000  48.0000 0000000   0.0000 149.2174 14.89338871    13
CTC1_L_00463005-11
1 10102U 24597BQ  26075.70035880  .00000000  00000+0  00000-0 0  9991
2 10102  50.0000  48.0000 0000000   0.0000 164.8696 14.89338871    16
CTC1_L_00463005-12
1 10103U 26565FR  26075.70035880  .00000000  00000+0  00000-0 0  9999
2 10103  50.0000  48.0000 0000000   0.0000 180.5217 14.89338871    11
CTC1_L_00463005-13
1 10104U 23590FJ  26075.70035880  .00000000  00000+0  00000-0 0  9995
2 10104  50.0000  48.0000 0000000   0.0000 196.1739 14.89338871    14
CTC1_L_00463005-14
1 10105U 22186NX  26075.70035880  .00000000  00000+0  00000-0 0  9996
2 10105  50.0000  48.0000 0000000   0.0000 211.8261 14.89338871    10
CTC1_L_00463005-15
1 10106U 23419KH  26075.70035880  .00000000  00000+0  00000-0 0  9997
2 10106  50.0000  48.0000 0000000   0.0000 227.4783 14.89338871    13
CTC1_L_00463005-16
1 10107U 23889OG  26075.70035880  .00000000  00000+0  00000-0 0  9999
2 10107  50.0000  48.0000 0000000   0.0000 243.1304 14.89338871    18
CTC1_L_00463005-17
1 10108U 24672HH  26075.70035880  .00000000  00000+0  00000-0 0  9991
2 10108  50.0000  48.0000 0000000   0.0000 258.7826 14.89338871    10
CTC1_L_00463005-18
1 10109U 26326UR  26075.70035880  .00000000  00000+0  00000-0 0  9990
2 10109  50.0000  48.0000 0000000   0.0000 274.4348 14.89338871    15
CTC1_L_00463005-19
1 10110U 23646RV  26075.70035880  .00000000  00000+0  00000-0 0  9994
2 10110  50.0000  48.0000 0000000   0.0000 290.0870 14.89338871    11
CTC1_L_00463005-20
1 10111U 26584DH  26075.70035880  .00000000  00000+0  00000-0 0  9999
2 10111  50.0000  48.0000 0000000   0.0000 305.7391 14.89338871    14
CTC1_L_00463005-21
1 10112U 24033VJ  26075.70035880  .00000000  00000+0  00000-0 0  9997
2 10112  50.0000  48.0000 0000000   0.0000 321.3913 14.89338871    19
CTC1_L_00463005-22
1 10113U 23408TI  26075.70035880  .00000000  00000+0  00000-0 0  9993
2 10113  50.0000  48.0000 0000000   0.0000 337.0435 14.89338871    13
CTC1_L_00463005-23
1 10114U 23296SU  26075.70035880  .00000000  00000+0  00000-0 0  9999
2 10114  50.0000  48.0000 0000000   0.0000 352.6957 14.89338871    16
CTC1_L_00463006-01
1 10115U 26259RW  26075.70035880  .00000000  00000+0  00000-0 0  9992
2 10115  50.0000  60.0000 0000000   0.0000  10.4348 14.89338871    14
CTC1_L_00463006-02
1 10116U 23785HO  26075.70035880  .00000000  00000+0  00000-0 0  9994
2 10116  50.0000  60.0000 0000000   0.0000  26.0870 14.89338871    18
CTC1_L_00463006-03
1 10117U 24492QN  26075.70035880  .00000000  00000+0  00000-0 0  9991
2 10117  50.0000  60.0000 0000000   0.0000  41.7391 14.89338871    11
CTC1_L_00463006-04
1 10118U 24827XV  26075.70035880  .00000000  00000+0  00000-0 0  9994
2 10118  50.0000  60.0000 0000000   0.0000  57.3913 14.89338871    15
CTC1_L_00463006-05
1 10119U 22621TE  26075.70035880  .00000000  00000+0  00000-0 0  9995
2 10119  50.0000  60.0000 0000000   0.0000  73.0435 14.89338871    10
CTC1_L_00463006-06
1 10120U 23677JS  26075.70035880  .00000000  00000+0  00000-0 0  9999
2 10120  50.0000  60.0000 0000000   0.0000  88.6957 14.89338871    13
CTC1_L_00463006-07
1 10121U 26346DY  26075.70035880  .00000000  00000+0  00000-0 0  9996
2 10121  50.0000  60.0000 0000000   0.0000 104.3478 14.89338871    18
CTC1_L_00463006-08
1 10122U 25041HL  26075.70035880  .00000000  00000+0  00000-0 0  9998
2 10122  50.0000  60.0000 0000000   0.0000 120.0000 14.89338871    15
CTC1_L_00463006-09
1 10123U 26951FL  26075.70035880  .00000000  00000+0  00000-0 0  9990
2 10123  50.0000  60.0000 0000000   0.0000 135.6522 14.89338871    17
